[{"OBJECT_NAME":"ITAMSAT (IO-26)","OBJECT_ID":"1993-061D","EPOCH":"2026-03-09T18:51:40.558176","MEAN_MOTION":14.31337175,"ECCENTRICITY":0.00091856,"INCLINATION":98.6929,"RA_OF_ASC_NODE":136.1036,"ARG_OF_PERICENTER":22.8845,"MEAN_ANOMALY":337.2746,"EPHEMERIS_TYPE":0,"CLASSIFICATION_TYPE":"U","NORAD_CAT_ID":22826,"ELEMENT_SET_NO":999,"REV_AT_EPOCH":69309,"BSTAR":7.3937292e-5,"MEAN_MOTION_DOT":1.51e-6,"MEAN_MOTION_DDOT":0},{"OBJECT_NAME":"DELTA 2 R\/B(1)","OBJECT_ID":"2003-005C","EPOCH":"2026-03-09T00:24:22.004640","MEAN_MOTION":14.29525263,"ECCENTRICITY":0.000809,"INCLINATION":39.5755,"RA_OF_ASC_NODE":75.8144,"ARG_OF_PERICENTER":114.0717,"MEAN_ANOMALY":274.1615,"EPHEMERIS_TYPE":0,"CLASSIFICATION_TYPE":"U","NORAD_CAT_ID":27665,"ELEMENT_SET_NO":999,"REV_AT_EPOCH":20669,"BSTAR":6.5590394e-5,"MEAN_MOTION_DOT":8.4e-7,"MEAN_MOTION_DDOT":0}]
